$$SOE
2461288.500000000, A.D. 2026-Sep-05 00:00:00.0000, -3.091942950396780E+07, -2.591505640060583E+08, -3.263317262979606E+07,
2461295.500000000, A.D. 2026-Sep-12 00:00:00.0000, -1.669919742901525E+07, -2.537689587296896E+08, -3.242698887143891E+07,
2461302.500000000, A.D. 2026-Sep-19 00:00:00.0000, -2.431359243303418E+06, -2.476562295437616E+08, -3.212736022800003E+07,
2461309.500000000, A.D. 2026-Sep-26 00:00:00.0000, 1.184347918417908E+07, -2.407716598563217E+08, -3.172758059662232E+07,
2461316.500000000, A.D. 2026-Oct-03 00:00:00.0000, 2.607766079003417E+07, -2.330739789549369E+08, -3.122062694531089E+07,
2461323.500000000, A.D. 2026-Oct-10 00:00:00.0000, 4.021551772131062E+07, -2.245221313523973E+08, -3.059922607414670E+07,
2461330.500000000, A.D. 2026-Oct-17 00:00:00.0000, 5.419238862604087E+07, -2.150763344644084E+08, -2.985595807184210E+07,
2461337.500000000, A.D. 2026-Oct-24 00:00:00.0000, 6.793367358852400E+07, -2.046994885809915E+08, -2.898340689604856E+07,
2461344.500000000, A.D. 2026-Oct-31 00:00:00.0000, 8.135402005346112E+07, -1.933590015752403E+08, -2.797436944405913E+07,
2461351.500000000, A.D. 2026-Nov-07 00:00:00.0000, 9.435677381609337E+07, -1.810290775098317E+08, -2.682213418778647E+07,
2461358.500000000, A.D. 2026-Nov-14 00:00:00.0000, 1.068338748178918E+08, -1.676934859804635E+08, -2.552083785791976E+07,
2461365.500000000, A.D. 2026-Nov-21 00:00:00.0000, 1.186664195991655E+08, -1.533487718416813E+08, -2.406590255953870E+07,
2461372.500000000, A.D. 2026-Nov-28 00:00:00.0000, 1.297261423501442E+08, -1.380077793400120E+08, -2.245454547792044E+07,
2461379.500000000, A.D. 2026-Dec-05 00:00:00.0000, 1.398780653828165E+08, -1.217032408960690E+08, -2.068633757216336E+07,
2461386.500000000, A.D. 2026-Dec-12 00:00:00.0000, 1.489845005735186E+08, -1.044910352001745E+08, -1.876376629965612E+07,
2461393.500000000, A.D. 2026-Dec-19 00:00:00.0000, 1.569104328066936E+08, -8.645258993259889E+07, -1.669273509562274E+07,
2461400.500000000, A.D. 2026-Dec-26 00:00:00.0000, 1.635300807776437E+08, -6.769583141061662E+07, -1.448291470976240E+07,
2461407.500000000, A.D. 2027-Jan-02 00:00:00.0000, 1.687341313979912E+08, -4.835412674499915E+07, -1.214785680250675E+07,
2461414.500000000, A.D. 2027-Jan-09 00:00:00.0000, 1.724368524917236E+08, -2.858287083019786E+07, -9.704796972312005E+06,
2461421.500000000, A.D. 2027-Jan-16 00:00:00.0000, 1.745821086797860E+08, -8.553738293114390E+06, -7.174115977340163E+06,
2461428.500000000, A.D. 2027-Jan-23 00:00:00.0000, 1.751473361181979E+08, 1.155292377294121E+07, -4.578488253393937E+06,
2461435.500000000, A.D. 2027-Jan-30 00:00:00.0000, 1.741448129192977E+08, 3.155667668303167E+07, -1.941809897027405E+06,
2461442.500000000, A.D. 2027-Feb-06 00:00:00.0000, 1.716200368373917E+08, 5.128543826430862E+07, 7.119564812385850E+05,
2461449.500000000, A.D. 2027-Feb-13 00:00:00.0000, 1.676475474649944E+08, 7.058274191515478E+07, 3.359870890300531E+06,
2461456.500000000, A.D. 2027-Feb-20 00:00:00.0000, 1.623249432944076E+08, 8.931304497472166E+07, 5.980914135342482E+06,
2461463.500000000, A.D. 2027-Feb-27 00:00:00.0000, 1.557660405032768E+08, 1.073647528876470E+08, 8.556618868203558E+06,
2461470.500000000, A.D. 2027-Mar-06 00:00:00.0000, 1.480940771749859E+08, 1.246510521430624E+08, 1.107141395756794E+07,
2461477.500000000, A.D. 2027-Mar-13 00:00:00.0000, 1.394356470192259E+08, 1.411089484881184E+08, 1.351270998858802E+07,
2461484.500000000, A.D. 2027-Mar-20 00:00:00.0000, 1.299157629387975E+08, 1.566970479899046E+08, 1.587078201819447E+07,
2461491.500000000, A.D. 2027-Mar-27 00:00:00.0000, 1.196541867214070E+08, 1.713926221783798E+08, 1.813851526757859E+07,
2461498.500000000, A.D. 2027-Apr-03 00:00:00.0000, 1.087629647543710E+08, 1.851884118938547E+08, 2.031107496214835E+07,
2461505.500000000, A.D. 2027-Apr-10 00:00:00.0000, 9.734499453988107E+07, 1.980894996659782E+08, 2.238554929866102E+07,
2461512.500000000, A.D. 2027-Apr-17 00:00:00.0000, 8.549340103494957E+07, 2.101104566253645E+08, 2.436060000589256E+07,
2461519.500000000, A.D. 2027-Apr-24 00:00:00.0000, 7.329150364811793E+07, 2.212728681846243E+08, 2.623614166507138E+07,
2461526.500000000, A.D. 2027-May-01 00:00:00.0000, 6.081318292989641E+07, 2.316032698149215E+08, 2.801306047685307E+07,
2461533.500000000, A.D. 2027-May-08 00:00:00.0000, 4.812349423405281E+07, 2.411314786895396E+08, 2.969297587385832E+07,
2461540.500000000, A.D. 2027-May-15 00:00:00.0000, 3.527941233006638E+07, 2.498892818654470E+08, 3.127804393043803E+07,
2461547.500000000, A.D. 2027-May-22 00:00:00.0000, 2.233062451548813E+07, 2.579094274206557E+08, 3.277079867489129E+07,
2461554.500000000, A.D. 2027-May-29 00:00:00.0000, 9.320321648077281E+06, 2.652248646648069E+08, 3.417402593359882E+07,
2461561.500000000, A.D. 2027-Jun-05 00:00:00.0000, -3.714045569627641E+06, 2.718681878423054E+08, 3.549066471275528E+07,
2461568.500000000, A.D. 2027-Jun-12 00:00:00.0000, -1.674006602624024E+07, 2.778712410730810E+08, 3.672373144212602E+07,
2461575.500000000, A.D. 2027-Jun-19 00:00:00.0000, -2.972973265990100E+07, 2.832648477028137E+08, 3.787626267770067E+07,
2461582.500000000, A.D. 2027-Jun-26 00:00:00.0000, -4.265887405824740E+07, 2.880786344794558E+08, 3.895127248647185E+07,
2461589.500000000, A.D. 2027-Jul-03 00:00:00.0000, -5.550665137425791E+07, 2.923409271081327E+08, 3.995172139293927E+07,
2461596.500000000, A.D. 2027-Jul-10 00:00:00.0000, -6.825511646026431E+07, 2.960786987325562E+08, 4.088049434287120E+07,
2461603.500000000, A.D. 2027-Jul-17 00:00:00.0000, -8.088882591368596E+07, 2.993175569624401E+08, 4.174038562876053E+07,
2461610.500000000, A.D. 2027-Jul-24 00:00:00.0000, -9.339450515253906E+07, 3.020817583598359E+08, 4.253408912284954E+07,
2461617.500000000, A.D. 2027-Jul-31 00:00:00.0000, -1.057607564028579E+08, 3.043942422260387E+08, 4.326419250727206E+07,
2461624.500000000, A.D. 2027-Aug-07 00:00:00.0000, -1.179778053912745E+08, 3.062766785175586E+08, 4.393317460363688E+07,
2461631.500000000, A.D. 2027-Aug-14 00:00:00.0000, -1.300372840708371E+08, 3.077495249338772E+08, 4.454340521025002E+07,
2461638.500000000, A.D. 2027-Aug-21 00:00:00.0000, -1.419320442692715E+08, 3.088320863419652E+08, 4.509714651040028E+07,
2461645.500000000, A.D. 2027-Aug-28 00:00:00.0000, -1.536559948413325E+08, 3.095425752047505E+08, 4.559655536893459E+07,
2461652.500000000, A.D. 2027-Sep-04 00:00:00.0000, -1.652039600034625E+08, 3.098981737042000E+08, 4.604368647281466E+07,
2461659.500000000, A.D. 2027-Sep-11 00:00:00.0000, -1.765715571829956E+08, 3.099150956147738E+08, 4.644049611473964E+07,
2461666.500000000, A.D. 2027-Sep-18 00:00:00.0000, -1.877550915961169E+08, 3.096086463869209E+08, 4.678884634521933E+07,
2461673.500000000, A.D. 2027-Sep-25 00:00:00.0000, -1.987514650400731E+08, 3.089932807743530E+08, 4.709050930907530E+07,
2461680.500000000, A.D. 2027-Oct-02 00:00:00.0000, -2.095580968584045E+08, 3.080826576686640E+08, 4.734717164568336E+07,
2461687.500000000, A.D. 2027-Oct-09 00:00:00.0000, -2.201728553676441E+08, 3.068896919367448E+08, 4.756043886556472E+07,
2461694.500000000, A.D. 2027-Oct-16 00:00:00.0000, -2.305939982327236E+08, 3.054266031242603E+08, 4.773183963184890E+07,
2461701.500000000, A.D. 2027-Oct-23 00:00:00.0000, -2.408201202879285E+08, 3.037049610214788E+08, 4.786282987923183E+07,
2461708.500000000, A.D. 2027-Oct-30 00:00:00.0000, -2.508501073629924E+08, 3.017357287620584E+08, 4.795479675669231E+07,
2461715.500000000, A.D. 2027-Nov-06 00:00:00.0000, -2.606830963653525E+08, 2.995293046837970E+08, 4.800906257429704E+07,
2461722.500000000, A.D. 2027-Nov-13 00:00:00.0000, -2.703184428207836E+08, 2.970955610040652E+08, 4.802688875591792E+07,
2461729.500000000, A.D. 2027-Nov-20 00:00:00.0000, -2.797556922932648E+08, 2.944438772646354E+08, 4.800947934759039E+07,
2461736.500000000, A.D. 2027-Nov-27 00:00:00.0000, -2.889945534873315E+08, 2.915831716542631E+08, 4.795798417427231E+07,
2461743.500000000, A.D. 2027-Dec-04 00:00:00.0000, -2.980348745633084E+08, 2.885219312752138E+08, 4.787350190821719E+07,
2461750.500000000, A.D. 2027-Dec-11 00:00:00.0000, -3.068766227884767E+08, 2.852682405425026E+08, 4.775708302563570E+07,
2461757.500000000, A.D. 2027-Dec-18 00:00:00.0000, -3.155198668791487E+08, 2.818298075228077E+08, 4.760973260486722E+07,
2461764.500000000, A.D. 2027-Dec-25 00:00:00.0000, -3.239647615629997E+08, 2.782139883505973E+08, 4.743241295916075E+07,
2461771.500000000, A.D. 2028-Jan-01 00:00:00.0000, -3.322115340453674E+08, 2.744278098693304E+08, 4.722604610938810E+07,
$$EOE